[Satellite]
VERSION=1.1
NAME=NIMIQ 6
NICKNAME=NIMIQ 6
TLE1=1 38342U 12026A   15053.29116690 -.00000198  00000-0  00000+0 0  9997
TLE2=2 38342   0.0394 289.8765 0001875  37.8487 197.8411  1.00269443 10158
